OBJECT_NAME,OBJECT_ID,EPOCH,MEAN_MOTION,ECCENTRICITY,INCLINATION,RA_OF_ASC_NODE,ARG_OF_PERICENTER,MEAN_ANOMALY,EPHEMERIS_TYPE,CLASSIFICATION_TYPE,NORAD_CAT_ID,ELEMENT_SET_NO,REV_AT_EPOCH,BSTAR,MEAN_MOTION_DOT,MEAN_MOTION_DDOT
INTELSAT 902 (IS-902),2001-039A,2026-06-15T12:49:23.534688,1.00270585,.00044689,6.1131,71.8047,9.1703,325.0843,0,U,26900,999,9067,0,-.285E-5,0
INTELSAT 904 (IS-904),2002-007A,2026-06-15T00:56:00.636864,1.00270923,.00064602,6.9148,69.2101,4.6857,171.9453,0,U,27380,999,5174,0,-.226E-5,0
DIRECTV 5 (TEMPO 1),2002-023A,2026-06-15T09:30:13.820256,1.00271501,.00032432,4.8734,75.3324,23.0379,197.7642,0,U,27426,999,8810,0,-.58E-6,0
INTELSAT 905 (IS-905),2002-027A,2026-06-15T11:30:38.824992,1.00270757,.00037296,6.7495,69.8206,20.3591,209.0280,0,U,27438,999,5134,0,.91E-6,0
GALAXY 3C (G-3C),2002-030A,2026-06-15T09:37:09.088896,1.00271070,.00015386,3.7272,77.9998,34.0137,201.1100,0,U,27445,999,4647,0,-.152E-5,0
INTELSAT 906 (IS-906),2002-041A,2026-06-15T04:52:21.721152,1.00272553,.00046233,5.7978,72.9468,5.0095,322.7640,0,U,27513,999,8700,0,.12E-6,0
GALAXY 13 (HORIZONS-1),2003-044A,2026-06-15T12:20:48.773760,1.00270269,.00022869,1.4151,83.8866,350.7854,224.3201,0,U,27954,999,4655,0,.134E-5,0
INTELSAT 10-02,2004-022A,2026-06-15T13:03:14.707008,1.00268380,.00000374,0.0119,316.2012,244.0689,258.3545,0,U,28358,999,8054,0,-.9E-7,0
DIRECTV 8,2005-019A,2026-06-15T12:29:40.424928,1.00271507,.0002764,0.0170,320.5776,127.8954,243.6937,0,U,28659,999,7705,0,.4E-7,0
GALAXY 28 (G-28),2005-022A,2026-06-15T11:13:13.588032,1.00270923,.00028657,3.2943,78.9551,4.8916,321.1103,0,U,28702,999,5195,0,-.2E-5,0
GALAXY 16 (G-16),2006-023A,2026-06-15T12:35:24.874944,1.00270270,.0002458,0.0102,283.1355,172.4513,258.0639,0,U,29236,999,7295,0,-.124E-5,0
DIRECTV 9S,2006-043A,2026-06-15T12:34:47.434368,1.00270809,.00048425,2.4167,80.9209,11.9053,258.4865,0,U,29494,999,5136,0,-.113E-5,0
GALAXY 17 (G-17),2007-016B,2026-06-15T09:14:01.086720,1.00269116,.00044107,2.9676,79.9207,19.1380,218.0942,0,U,31307,999,6978,0,-.205E-5,0
INTELSAT 11 (IS-11),2007-044B,2026-06-15T13:41:34.541952,0.99051525,.00022696,3.5615,78.6883,91.1801,72.3506,0,U,32253,999,6843,0,-.267E-5,0
HORIZONS-2,2007-063B,2026-06-15T12:42:39.180960,1.00268917,.0003713,2.5981,80.6451,1.1884,298.8458,0,U,32388,999,6779,0,-.253E-5,0
DIRECTV 11,2008-013A,2026-06-14T22:54:02.204352,1.00270145,.00004947,0.0094,269.4466,94.4042,143.7272,0,U,32729,999,4557,0,-.12E-5,0
GALAXY 18 (G-18),2008-024A,2026-06-15T12:28:33.032928,1.00271904,.00026869,0.0178,15.0615,69.6700,243.2065,0,U,32951,999,4583,0,.28E-6,0
INTELSAT 25 (IS-25),2008-034A,2026-06-15T13:40:19.661664,0.99035535,.00032193,2.7059,80.3909,60.2072,97.1895,0,U,33153,999,6567,0,-.25E-5,0
GALAXY 19 (G-19),2008-045A,2026-06-15T12:36:02.314656,1.00270743,.00023652,0.0404,264.5218,182.9249,268.3762,0,U,33376,999,6488,0,-.136E-5,0
FM-5,2009-034A,2026-06-14T19:32:31.676064,1.00269724,.00010188,0.0205,292.4193,18.8658,158.8044,0,U,35493,999,4662,0,-.194E-5,0
INTELSAT 14 (IS-14),2009-064A,2026-06-15T11:08:06.577728,1.00267871,.00022151,0.0222,292.8986,140.2018,312.6838,0,U,36097,999,6058,0,-.271E-5,0
INTELSAT 15 (IS-15),2009-067A,2026-06-15T11:45:18.511776,1.00268544,.00018729,0.0171,302.3670,151.5293,71.3534,0,U,36106,999,4121,0,-.182E-5,0
DIRECTV 12,2009-075A,2026-06-15T10:51:38.157408,1.00272221,.00003372,0.0233,154.0951,245.9985,283.8318,0,U,36131,999,4653,0,-.101E-5,0
INTELSAT 16 (IS-16),2010-006A,2026-06-15T10:59:14.927424,1.00269456,.00019155,0.0193,305.3193,160.1112,246.9194,0,U,36397,999,5963,0,-.242E-5,0
XM-5,2010-053A,2026-06-15T00:23:38.718240,1.00271028,.00028901,0.0647,273.1886,289.1857,311.6507,0,U,37185,999,5746,0,-.18E-6,0
INTELSAT 17 (IS-17),2010-065B,2026-06-15T13:22:27.863616,1.00271429,.00025293,0.0089,286.2915,167.4510,76.7066,0,U,37238,999,5323,0,.1E-7,0
INTELSAT 28 (IS-28),2011-016A,2026-06-15T09:29:14.626752,1.00270031,.00035796,1.8018,82.6416,6.1020,285.5343,0,U,37392,999,5326,0,-.223E-5,0
INTELSAT 18 (IS-18),2011-056A,2026-06-15T12:04:38.653824,1.00271138,.00015525,0.0133,300.2965,142.3543,182.2943,0,U,37834,999,5379,0,.55E-6,0
INTELSAT 22 (IS-22),2012-011A,2026-06-15T11:41:33.870912,1.00271312,.00016179,0.0420,54.7516,45.7856,50.7089,0,U,38098,999,717,0,0,0
INTELSAT 19 (IS-19),2012-030A,2026-06-15T12:12:38.850336,1.00270877,.00028147,0.0175,351.2084,101.6438,160.0968,0,U,38356,999,5043,0,-.54E-6,0
INTELSAT 20 (IS-20),2012-043A,2026-06-15T13:23:12.791616,1.00272179,.00017542,0.0049,83.1092,99.4076,350.6404,0,U,38740,999,5073,0,-.22E-6,0
